ONEWEB-0662             
1 55822U 23029AC  25365.28060149  .00000091  00000+0  21079-3 0  9990
2 55822  87.9006 323.2177 0001929  71.4867 288.6472 13.14502886137379
ONEWEB-0663             
1 55823U 23029AD  25365.29691311 -.00000034  00000+0 -11582-3 0  9990
2 55823  87.9237 307.9817 0001900  66.1772 293.9561 13.20855229138986
ONEWEB-0664             
1 55824U 23029AE  25365.23866347  .00000042  00000+0  72061-4 0  9995
2 55824  87.9214 307.9960 0002161  79.1715 280.9661 13.20771537138977
ONEWEB-0665             
1 55825U 23029AF  25364.93806736  .00000087  00000+0  19911-3 0  9991
2 55825  87.9006 323.2580 0001904  71.9390 288.1947 13.14501593137308
ONEWEB-0666             
1 55826U 23029AG  25365.23233350 -.00000034  00000+0 -11612-3 0  9996
2 55826  87.9217 307.9865 0001455 102.8236 257.3060 13.20769199138986
ONEWEB-0667             
1 55827U 23029AH  25365.30179072  .00000087  00000+0  18088-3 0  9995
2 55827  87.9228 307.9074 0001912  73.5357 286.5986 13.20773487138983
ONEWEB-0669             
1 55828U 23029AJ  25365.29709774  .00025506  00000+0  62632-1 0  9997
2 55828  87.9217 307.9401 0002177  95.3458 264.7924 13.20654052138980
ONEWEB-0670             
1 55829U 23029AK  25365.29645568 -.00000145  00000+0 -42443-3 0  9992
2 55829  87.9003 323.2069 0002124  76.8293 283.3074 13.14504302137378
ONEWEB-0671             
1 55830U 23029AL  25364.97766416 -.00000215  00000+0 -56939-3 0  9997
2 55830  87.9213 338.4484 0001867  78.4155 281.7188 13.19724635136713
ONEWEB-0672             
1 55831U 23029AM  25365.21656917 -.00000043  00000+0 -13814-3 0  9994
2 55831  87.9220 307.9379 0001702  85.6525 274.4803 13.20771323138976
ONEWEB-0673             
1 55832U 23029AN  25364.95476595  .00000103  00000+0  22441-3 0  9998
2 55832  87.9223 338.4356 0001883  80.2443 279.8902 13.19727734136718
ONEWEB-0674             
1 55833U 23029AP  25365.26474761  .00000255  00000+0  65301-3 0  9997
2 55833  87.9004 323.1901 0002185  76.1848 283.9525 13.14501713137352
ONEWEB-0675             
1 55834U 23029AQ  25364.89396741  .00000120  00000+0  26756-3 0  9999
2 55834  87.9203 338.4724 0001502  87.6626 272.4678 13.19725451136723
ONEWEB-0720             
1 55835U 23029AR  25364.96188046  .00000135  00000+0  30447-3 0  9993
2 55835  87.9202 338.4575 0001752  71.2000 288.9323 13.19726403136658
ONEWEB-0537             
1 56046U 23043A   25365.24131614  .00000045  00000+0  84704-4 0  9991
2 56046  87.9044 262.2118 0001388  82.0969 278.0319 13.16593175136866
ONEWEB-0538             
1 56047U 23043B   25365.23497359  .00000113  00000+0  26147-3 0  9994
2 56047  87.9043 262.2166 0001248  70.3589 289.7676 13.16592716136878
