[{"OBJECT_NAME":"ONEWEB-0662","OBJECT_ID":"2023-029AC","EPOCH":"2025-12-31T06:44:03.968736","MEAN_MOTION":13.14502886,"ECCENTRICITY":0.00019292,"INCLINATION":87.9006,"RA_OF_ASC_NODE":323.2177,"ARG_OF_PERICENTER":71.4867,"MEAN_ANOMALY":288.6472,"EPHEMERIS_TYPE":0,"CLASSIFICATION_TYPE":"U","NORAD_CAT_ID":55822,"ELEMENT_SET_NO":999,"REV_AT_EPOCH":13737,"BSTAR":0.00021079207,"MEAN_MOTION_DOT":9.1e-7,"MEAN_MOTION_DDOT":0},{"OBJECT_NAME":"ONEWEB-0663","OBJECT_ID":"2023-029AD","EPOCH":"2025-12-31T07:07:33.292704","MEAN_MOTION":13.20855229,"ECCENTRICITY":0.00019007,"INCLINATION":87.9237,"RA_OF_ASC_NODE":307.9817,"ARG_OF_PERICENTER":66.1772,"MEAN_ANOMALY":293.9561,"EPHEMERIS_TYPE":0,"CLASSIFICATION_TYPE":"U","NORAD_CAT_ID":55823,"ELEMENT_SET_NO":999,"REV_AT_EPOCH":13898,"BSTAR":-0.00011581687,"MEAN_MOTION_DOT":-3.4e-7,"MEAN_MOTION_DDOT":0},{"OBJECT_NAME":"ONEWEB-0664","OBJECT_ID":"2023-029AE","EPOCH":"2025-12-31T05:43:40.523808","MEAN_MOTION":13.20771537,"ECCENTRICITY":0.00021616,"INCLINATION":87.9214,"RA_OF_ASC_NODE":307.996,"ARG_OF_PERICENTER":79.1715,"MEAN_ANOMALY":280.9661,"EPHEMERIS_TYPE":0,"CLASSIFICATION_TYPE":"U","NORAD_CAT_ID":55824,"ELEMENT_SET_NO":999,"REV_AT_EPOCH":13897,"BSTAR":7.2061203e-5,"MEAN_MOTION_DOT":4.2e-7,"MEAN_MOTION_DDOT":0},{"OBJECT_NAME":"ONEWEB-0665","OBJECT_ID":"2023-029AF","EPOCH":"2025-12-30T22:30:49.019904","MEAN_MOTION":13.14501593,"ECCENTRICITY":0.0001904,"INCLINATION":87.9006,"RA_OF_ASC_NODE":323.258,"ARG_OF_PERICENTER":71.939,"MEAN_ANOMALY":288.1947,"EPHEMERIS_TYPE":0,"CLASSIFICATION_TYPE":"U","NORAD_CAT_ID":55825,"ELEMENT_SET_NO":999,"REV_AT_EPOCH":13730,"BSTAR":0.00019911,"MEAN_MOTION_DOT":8.7e-7,"MEAN_MOTION_DDOT":0},{"OBJECT_NAME":"ONEWEB-0666","OBJECT_ID":"2023-029AG","EPOCH":"2025-12-31T05:34:33.614400","MEAN_MOTION":13.20769199,"ECCENTRICITY":0.00014552,"INCLINATION":87.9217,"RA_OF_ASC_NODE":307.9865,"ARG_OF_PERICENTER":102.8236,"MEAN_ANOMALY":257.306,"EPHEMERIS_TYPE":0,"CLASSIFICATION_TYPE":"U","NORAD_CAT_ID":55826,"ELEMENT_SET_NO":999,"REV_AT_EPOCH":13898,"BSTAR":-0.00011611546,"MEAN_MOTION_DOT":-3.4e-7,"MEAN_MOTION_DDOT":0},{"OBJECT_NAME":"ONEWEB-0667","OBJECT_ID":"2023-029AH","EPOCH":"2025-12-31T07:14:34.718208","MEAN_MOTION":13.20773487,"ECCENTRICITY":0.00019124,"INCLINATION":87.9228,"RA_OF_ASC_NODE":307.9074,"ARG_OF_PERICENTER":73.5357,"MEAN_ANOMALY":286.5986,"EPHEMERIS_TYPE":0,"CLASSIFICATION_TYPE":"U","NORAD_CAT_ID":55827,"ELEMENT_SET_NO":999,"REV_AT_EPOCH":13898,"BSTAR":0.00018087775,"MEAN_MOTION_DOT":8.7e-7,"MEAN_MOTION_DDOT":0},{"OBJECT_NAME":"ONEWEB-0669","OBJECT_ID":"2023-029AJ","EPOCH":"2025-12-31T07:07:49.244736","MEAN_MOTION":13.20654052,"ECCENTRICITY":0.00021776,"INCLINATION":87.9217,"RA_OF_ASC_NODE":307.9401,"ARG_OF_PERICENTER":95.3458,"MEAN_ANOMALY":264.7924,"EPHEMERIS_TYPE":0,"CLASSIFICATION_TYPE":"U","NORAD_CAT_ID":55828,"ELEMENT_SET_NO":999,"REV_AT_EPOCH":13898,"BSTAR":0.062631693,"MEAN_MOTION_DOT":0.00025506,"MEAN_MOTION_DDOT":0},{"OBJECT_NAME":"ONEWEB-0670","OBJECT_ID":"2023-029AK","EPOCH":"2025-12-31T07:06:53.770752","MEAN_MOTION":13.14504302,"ECCENTRICITY":0.00021247,"INCLINATION":87.9003,"RA_OF_ASC_NODE":323.2069,"ARG_OF_PERICENTER":76.8293,"MEAN_ANOMALY":283.3074,"EPHEMERIS_TYPE":0,"CLASSIFICATION_TYPE":"U","NORAD_CAT_ID":55829,"ELEMENT_SET_NO":999,"REV_AT_EPOCH":13737,"BSTAR":-0.0004244331,"MEAN_MOTION_DOT":-1.45e-6,"MEAN_MOTION_DDOT":0},{"OBJECT_NAME":"ONEWEB-0671","OBJECT_ID":"2023-029AL","EPOCH":"2025-12-30T23:27:50.183424","MEAN_MOTION":13.19724635,"ECCENTRICITY":0.00018672,"INCLINATION":87.9213,"RA_OF_ASC_NODE":338.4484,"ARG_OF_PERICENTER":78.4155,"MEAN_ANOMALY":281.7188,"EPHEMERIS_TYPE":0,"CLASSIFICATION_TYPE":"U","NORAD_CAT_ID":55830,"ELEMENT_SET_NO":999,"REV_AT_EPOCH":13671,"BSTAR":-0.00056939053,"MEAN_MOTION_DOT":-2.15e-6,"MEAN_MOTION_DDOT":0},{"OBJECT_NAME":"ONEWEB-0672","OBJECT_ID":"2023-029AM","EPOCH":"2025-12-31T05:11:51.576288","MEAN_MOTION":13.20771323,"ECCENTRICITY":0.00017026,"INCLINATION":87.922,"RA_OF_ASC_NODE":307.9379,"ARG_OF_PERICENTER":85.6525,"MEAN_ANOMALY":274.4803,"EPHEMERIS_TYPE":0,"CLASSIFICATION_TYPE":"U","NORAD_CAT_ID":55831,"ELEMENT_SET_NO":999,"REV_AT_EPOCH":13897,"BSTAR":-0.00013814278,"MEAN_MOTION_DOT":-4.3e-7,"MEAN_MOTION_DDOT":0},{"OBJECT_NAME":"ONEWEB-0673","OBJECT_ID":"2023-029AN","EPOCH":"2025-12-30T22:54:51.778080","MEAN_MOTION":13.19727734,"ECCENTRICITY":0.00018834,"INCLINATION":87.9223,"RA_OF_ASC_NODE":338.4356,"ARG_OF_PERICENTER":80.2443,"MEAN_ANOMALY":279.8902,"EPHEMERIS_TYPE":0,"CLASSIFICATION_TYPE":"U","NORAD_CAT_ID":55832,"ELEMENT_SET_NO":999,"REV_AT_EPOCH":13671,"BSTAR":0.00022441202,"MEAN_MOTION_DOT":1.03e-6,"MEAN_MOTION_DDOT":0},{"OBJECT_NAME":"ONEWEB-0674","OBJECT_ID":"2023-029AP","EPOCH":"2025-12-31T06:21:14.193504","MEAN_MOTION":13.14501713,"ECCENTRICITY":0.00021853,"INCLINATION":87.9004,"RA_OF_ASC_NODE":323.1901,"ARG_OF_PERICENTER":76.1848,"MEAN_ANOMALY":283.9525,"EPHEMERIS_TYPE":0,"CLASSIFICATION_TYPE":"U","NORAD_CAT_ID":55833,"ELEMENT_SET_NO":999,"REV_AT_EPOCH":13735,"BSTAR":0.00065301233,"MEAN_MOTION_DOT":2.55e-6,"MEAN_MOTION_DDOT":0},{"OBJECT_NAME":"ONEWEB-0675","OBJECT_ID":"2023-029AQ","EPOCH":"2025-12-30T21:27:18.784224","MEAN_MOTION":13.19725451,"ECCENTRICITY":0.0001502,"INCLINATION":87.9203,"RA_OF_ASC_NODE":338.4724,"ARG_OF_PERICENTER":87.6626,"MEAN_ANOMALY":272.4678,"EPHEMERIS_TYPE":0,"CLASSIFICATION_TYPE":"U","NORAD_CAT_ID":55834,"ELEMENT_SET_NO":999,"REV_AT_EPOCH":13672,"BSTAR":0.00026756,"MEAN_MOTION_DOT":1.2e-6,"MEAN_MOTION_DDOT":0},{"OBJECT_NAME":"ONEWEB-0720","OBJECT_ID":"2023-029AR","EPOCH":"2025-12-30T23:05:06.471744","MEAN_MOTION":13.19726403,"ECCENTRICITY":0.00017525,"INCLINATION":87.9202,"RA_OF_ASC_NODE":338.4575,"ARG_OF_PERICENTER":71.2,"MEAN_ANOMALY":288.9323,"EPHEMERIS_TYPE":0,"CLASSIFICATION_TYPE":"U","NORAD_CAT_ID":55835,"ELEMENT_SET_NO":999,"REV_AT_EPOCH":13665,"BSTAR":0.00030446608,"MEAN_MOTION_DOT":1.35e-6,"MEAN_MOTION_DDOT":0},{"OBJECT_NAME":"ONEWEB-0537","OBJECT_ID":"2023-043A","EPOCH":"2025-12-31T05:47:29.714496","MEAN_MOTION":13.16593175,"ECCENTRICITY":0.00013888,"INCLINATION":87.9044,"RA_OF_ASC_NODE":262.2118,"ARG_OF_PERICENTER":82.0969,"MEAN_ANOMALY":278.0319,"EPHEMERIS_TYPE":0,"CLASSIFICATION_TYPE":"U","NORAD_CAT_ID":56046,"ELEMENT_SET_NO":999,"REV_AT_EPOCH":13686,"BSTAR":8.4704191e-5,"MEAN_MOTION_DOT":4.5e-7,"MEAN_MOTION_DDOT":0},{"OBJECT_NAME":"ONEWEB-0538","OBJECT_ID":"2023-043B","EPOCH":"2025-12-31T05:38:21.718176","MEAN_MOTION":13.16592716,"ECCENTRICITY":0.00012486,"INCLINATION":87.9043,"RA_OF_ASC_NODE":262.2166,"ARG_OF_PERICENTER":70.3589,"MEAN_ANOMALY":289.7676,"EPHEMERIS_TYPE":0,"CLASSIFICATION_TYPE":"U","NORAD_CAT_ID":56047,"ELEMENT_SET_NO":999,"REV_AT_EPOCH":13687,"BSTAR":0.00026147097,"MEAN_MOTION_DOT":1.13e-6,"MEAN_MOTION_DDOT":0}]
